start=new Date('2021-08-23T00:00:00.000Z').valueOf();
sats=[{"MEAN_ELEMENT_THEORY":"SGP4","PERIOD":"95.593","RA_OF_ASC_NODE":"87.7437","NORAD_CAT_ID":"45775","OBJECT_NAME":"STARLINK-1488","ARG_OF_PERICENTER":"90.5895","APOAPSIS":"548.428","OBJECT_TYPE":"PAYLOAD","TIME_SYSTEM":"UTC","LAUNCH_DATE":"2020-06-13","ECCENTRICITY":"0.00016890","CLASSIFICATION_TYPE":"U","MEAN_MOTION_DDOT":"0.0000000000000","REF_FRAME":"TEME","EPOCH":"2021-08-22T21:25:03.703008","SITE":"AFETR","FILE":"3101563","DECAY_DATE":null,"COUNTRY_CODE":"US","EPHEMERIS_TYPE":"0","REV_AT_EPOCH":"6659","MEAN_ANOMALY":"269.5287","ELEMENT_SET_NO":"999","RCS_SIZE":"LARGE","MEAN_MOTION_DOT":"0.00000114","TLE_LINE2":"2 45775  53.0544  87.7437 0001689  90.5895 269.5287 15.06385307 66590","GP_ID":"183269551","OBJECT_ID":"2020-038AX","CENTER_NAME":"EARTH","PERIAPSIS":"546.089","INCLINATION":"53.0544","BSTAR":"0.00002656000000","SEMIMAJOR_AXIS":"6925.394","MEAN_MOTION":"15.06385307","TLE_LINE1":"1 45775U 20038AX  21234.89240397  .00000114  00000-0  26560-4 0  9994"},{"DECAY_DATE":null,"REV_AT_EPOCH":"6659","MEAN_ANOMALY":"275.4512","COUNTRY_CODE":"US","EPHEMERIS_TYPE":"0","TLE_LINE2":"2 45776  53.0555  87.7195 0002120  84.6718 275.4512 15.06392925 66594","MEAN_MOTION_DOT":"0.00000977","RCS_SIZE":"LARGE","ELEMENT_SET_NO":"999","GP_ID":"183270803","OBJECT_ID":"2020-038AY","CENTER_NAME":"EARTH","PERIAPSIS":"545.767","BSTAR":"0.00008448100000","INCLINATION":"53.0555","MEAN_MOTION":"15.06392925","SEMIMAJOR_AXIS":"6925.370","TLE_LINE1":"1 45776U 20038AY  21234.89976916  .00000977  00000-0  84481-4 0  9991","RA_OF_ASC_NODE":"87.7195","MEAN_ELEMENT_THEORY":"SGP4","PERIOD":"95.593","ARG_OF_PERICENTER":"84.6718","OBJECT_NAME":"STARLINK-1489","NORAD_CAT_ID":"45776","TIME_SYSTEM":"UTC","OBJECT_TYPE":"PAYLOAD","APOAPSIS":"548.703","CLASSIFICATION_TYPE":"U","LAUNCH_DATE":"2020-06-13","ECCENTRICITY":"0.00021200","EPOCH":"2021-08-22T21:35:40.055424","SITE":"AFETR","REF_FRAME":"TEME","MEAN_MOTION_DDOT":"0.0000000000000","FILE":"3101563"},{"PERIAPSIS":"545.739","INCLINATION":"53.0547","BSTAR":"0.00001399300000","CENTER_NAME":"EARTH","TLE_LINE1":"1 45777U 20038AZ  21234.89608165 -.00000073  00000-0  13993-4 0  9998","SEMIMAJOR_AXIS":"6925.359","MEAN_MOTION":"15.06396526","COUNTRY_CODE":"US","EPHEMERIS_TYPE":"0","MEAN_ANOMALY":"271.6591","REV_AT_EPOCH":"6659","DECAY_DATE":null,"OBJECT_ID":"2020-038AZ","GP_ID":"183271054","ELEMENT_SET_NO":"999","RCS_SIZE":"LARGE","TLE_LINE2":"2 45777  53.0547  87.7293 0002144  88.4644 271.6591 15.06396526 66597","MEAN_MOTION_DOT":"-0.00000073","ECCENTRICITY":"0.00021440","LAUNCH_DATE":"2020-06-13","CLASSIFICATION_TYPE":"U","FILE":"3101563","REF_FRAME":"TEME","MEAN_MOTION_DDOT":"0.0000000000000","SITE":"AFETR","EPOCH":"2021-08-22T21:30:21.454560","PERIOD":"95.592","MEAN_ELEMENT_THEORY":"SGP4","RA_OF_ASC_NODE":"87.7293","APOAPSIS":"548.709","TIME_SYSTEM":"UTC","OBJECT_TYPE":"PAYLOAD","NORAD_CAT_ID":"45777","OBJECT_NAME":"STARLINK-1490","ARG_OF_PERICENTER":"88.4644"},{"APOAPSIS":"548.780","OBJECT_TYPE":"PAYLOAD","TIME_SYSTEM":"UTC","OBJECT_NAME":"STARLINK-1491","NORAD_CAT_ID":"45778","ARG_OF_PERICENTER":"83.2909","MEAN_ELEMENT_THEORY":"SGP4","PERIOD":"95.592","RA_OF_ASC_NODE":"87.8180","FILE":"3101563","REF_FRAME":"TEME","MEAN_MOTION_DDOT":"0.0000000000000","EPOCH":"2021-08-22T21:03:48.560832","SITE":"AFETR","LAUNCH_DATE":"2020-06-13","ECCENTRICITY":"0.00022720","CLASSIFICATION_TYPE":"U","GP_ID":"183269802","OBJECT_ID":"2020-038BA","ELEMENT_SET_NO":"999","RCS_SIZE":"LARGE","MEAN_MOTION_DOT":"0.00000638","TLE_LINE2":"2 45778  53.0561  87.8180 0002272  83.2909 276.8338 15.06402274 66571","EPHEMERIS_TYPE":"0","COUNTRY_CODE":"US","REV_AT_EPOCH":"6657","MEAN_ANOMALY":"276.8338","DECAY_DATE":null,"TLE_LINE1":"1 45778U 20038BA  21234.87764538  .00000638  00000-0  61748-4 0  9991","SEMIMAJOR_AXIS":"6925.342","MEAN_MOTION":"15.06402274","BSTAR":"0.00006174800000","PERIAPSIS":"545.633","INCLINATION":"53.0561","CENTER_NAME":"EARTH"},{"BSTAR":"0.00007115200000","PERIAPSIS":"545.852","INCLINATION":"53.0550","CENTER_NAME":"EARTH","TLE_LINE1":"1 45779U 20038BB  21234.87395953  .00000778  00000-0  71152-4 0  9998","MEAN_MOTION":"15.06402164","SEMIMAJOR_AXIS":"6925.342","MEAN_ANOMALY":"266.6562","REV_AT_EPOCH":"6657","EPHEMERIS_TYPE":"0","COUNTRY_CODE":"US","DECAY_DATE":null,"OBJECT_ID":"2020-038BB","GP_ID":"183270052","MEAN_MOTION_DOT":"0.00000778","TLE_LINE2":"2 45779  53.0550  87.8333 0001956  93.4651 266.6562 15.06402164 66579","ELEMENT_SET_NO":"999","RCS_SIZE":"LARGE","CLASSIFICATION_TYPE":"U","ECCENTRICITY":"0.00019560","LAUNCH_DATE":"2020-06-13","FILE":"3101563","SITE":"AFETR","EPOCH":"2021-08-22T20:58:30.103392","MEAN_MOTION_DDOT":"0.0000000000000","REF_FRAME":"TEME","RA_OF_ASC_NODE":"87.8333","PERIOD":"95.592","MEAN_ELEMENT_THEORY":"SGP4","OBJECT_TYPE":"PAYLOAD","TIME_SYSTEM":"UTC","APOAPSIS":"548.562","ARG_OF_PERICENTER":"93.4651","NORAD_CAT_ID":"45779","OBJECT_NAME":"STARLINK-1492"},{"OBJECT_ID":"2020-038BC","GP_ID":"183270303","RCS_SIZE":"LARGE","ELEMENT_SET_NO":"999","TLE_LINE2":"2 45780  53.0569  87.7831 0002300  92.7212 267.4040 15.06404538 66579","MEAN_MOTION_DOT":"0.00000711","COUNTRY_CODE":"US","EPHEMERIS_TYPE":"0","MEAN_ANOMALY":"267.4040","REV_AT_EPOCH":"6657","DECAY_DATE":null,"TLE_LINE1":"1 45780U 20038BC  21234.88501568  .00000711  00000-0  66664-4 0  9991","SEMIMAJOR_AXIS":"6925.335","MEAN_MOTION":"15.06404538","PERIAPSIS":"545.607","BSTAR":"0.00006666400000","INCLINATION":"53.0569","CENTER_NAME":"EARTH","APOAPSIS":"548.792","TIME_SYSTEM":"UTC","OBJECT_TYPE":"PAYLOAD","OBJECT_NAME":"STARLINK-1496","NORAD_CAT_ID":"45780","ARG_OF_PERICENTER":"92.7212","PERIOD":"95.592","MEAN_ELEMENT_THEORY":"SGP4","RA_OF_ASC_NODE":"87.7831","FILE":"3101563","MEAN_MOTION_DDOT":"0.0000000000000","REF_FRAME":"TEME","SITE":"AFETR","EPOCH":"2021-08-22T21:14:25.354752","ECCENTRICITY":"0.00023000","LAUNCH_DATE":"2020-06-13","CLASSIFICATION_TYPE":"U"},{"PERIAPSIS":"545.849","BSTAR":"0.00006537200000","INCLINATION":"53.0543","CENTER_NAME":"EARTH","TLE_LINE1":"1 45781U 20038BD  21234.84448032  .00000692  00000-0  65372-4 0  9997","SEMIMAJOR_AXIS":"6925.386","MEAN_MOTION":"15.06387942","EPHEMERIS_TYPE":"0","COUNTRY_CODE":"US","MEAN_ANOMALY":"268.8541","REV_AT_EPOCH":"6657","DECAY_DATE":null,"OBJECT_ID":"2020-038BD","GP_ID":"183270554","ELEMENT_SET_NO":"999","RCS_SIZE":"LARGE","TLE_LINE2":"2 45781  53.0543  87.9683 0002024  91.2680 268.8541 15.06387942 66575","MEAN_MOTION_DOT":"0.00000692","ECCENTRICITY":"0.00020240","LAUNCH_DATE":"2020-06-13","CLASSIFICATION_TYPE":"U","FILE":"3101563","MEAN_MOTION_DDOT":"0.0000000000000","REF_FRAME":"TEME","SITE":"AFETR","EPOCH":"2021-08-22T20:16:03.099648","PERIOD":"95.593","MEAN_ELEMENT_THEORY":"SGP4","RA_OF_ASC_NODE":"87.9683","APOAPSIS":"548.652","OBJECT_TYPE":"PAYLOAD","TIME_SYSTEM":"UTC","OBJECT_NAME":"STARLINK-1497","NORAD_CAT_ID":"45781","ARG_OF_PERICENTER":"91.2680"},{"PERIAPSIS":"545.841","BSTAR":"0.00008557400000","INCLINATION":"53.0548","CENTER_NAME":"EARTH","TLE_LINE1":"1 45782U 20038BE  21234.83710375  .00000993  00000-0  85574-4 0  9999","SEMIMAJOR_AXIS":"6925.346","MEAN_MOTION":"15.06400763","EPHEMERIS_TYPE":"0","COUNTRY_CODE":"US","MEAN_ANOMALY":"274.3274","REV_AT_EPOCH":"6658","DECAY_DATE":null,"OBJECT_ID":"2020-038BE","GP_ID":"183269302","ELEMENT_SET_NO":"999","RCS_SIZE":"LARGE","TLE_LINE2":"2 45782  53.0548  87.9913 0001978  85.7941 274.3274 15.06400763 66585","MEAN_MOTION_DOT":"0.00000993","ECCENTRICITY":"0.00019780","LAUNCH_DATE":"2020-06-13","CLASSIFICATION_TYPE":"U","FILE":"3101563","REF_FRAME":"TEME","MEAN_MOTION_DDOT":"0.0000000000000","SITE":"AFETR","EPOCH":"2021-08-22T20:05:25.764000","PERIOD":"95.592","MEAN_ELEMENT_THEORY":"SGP4","RA_OF_ASC_NODE":"87.9913","APOAPSIS":"548.581","TIME_SYSTEM":"UTC","OBJECT_TYPE":"PAYLOAD","OBJECT_NAME":"STARLINK-1498","NORAD_CAT_ID":"45782","ARG_OF_PERICENTER":"85.7941"},{"MEAN_MOTION":"15.06399525","SEMIMAJOR_AXIS":"6925.350","TLE_LINE1":"1 45783U 20038BF  21234.84078585  .00001104  00000-0  92977-4 0  9991","CENTER_NAME":"EARTH","INCLINATION":"53.0538","PERIAPSIS":"545.966","BSTAR":"0.00009297700000","MEAN_MOTION_DOT":"0.00001104","TLE_LINE2":"2 45783  53.0538  87.9706 0001804  93.8148 266.3047 15.06399525 66584","ELEMENT_SET_NO":"999","RCS_SIZE":"LARGE","GP_ID":"183269552","OBJECT_ID":"2020-038BF","DECAY_DATE":null,"REV_AT_EPOCH":"6658","MEAN_ANOMALY":"266.3047","COUNTRY_CODE":"US","EPHEMERIS_TYPE":"0","EPOCH":"2021-08-22T20:10:43.897440","SITE":"AFETR","MEAN_MOTION_DDOT":"0.0000000000000","REF_FRAME":"TEME","FILE":"3101563","CLASSIFICATION_TYPE":"U","LAUNCH_DATE":"2020-06-13","ECCENTRICITY":"0.00018040","ARG_OF_PERICENTER":"93.8148","NORAD_CAT_ID":"45783","OBJECT_NAME":"STARLINK-1505","TIME_SYSTEM":"UTC","OBJECT_TYPE":"PAYLOAD","APOAPSIS":"548.464","RA_OF_ASC_NODE":"87.9706","MEAN_ELEMENT_THEORY":"SGP4","PERIOD":"95.592"},{"MEAN_MOTION_DDOT":"0.0000000000000","REF_FRAME":"TEME","EPOCH":"2021-08-22T21:09:07.753536","SITE":"AFETR","FILE":"3101563","LAUNCH_DATE":"2020-06-13","ECCENTRICITY":"0.00019570","CLASSIFICATION_TYPE":"U","NORAD_CAT_ID":"45784","OBJECT_NAME":"STARLINK-1510","ARG_OF_PERICENTER":"73.7778","APOAPSIS":"548.566","OBJECT_TYPE":"PAYLOAD","TIME_SYSTEM":"UTC","MEAN_ELEMENT_THEORY":"SGP4","PERIOD":"95.592","RA_OF_ASC_NODE":"87.7964","SEMIMAJOR_AXIS":"6925.346","MEAN_MOTION":"15.06400933","TLE_LINE1":"1 45784U 20038BG  21234.88133974  .00001090  00000-0  92084-4 0  9993","CENTER_NAME":"EARTH","BSTAR":"0.00009208400000","PERIAPSIS":"545.855","INCLINATION":"53.0549","RCS_SIZE":"LARGE","ELEMENT_SET_NO":"999","MEAN_MOTION_DOT":"0.00001090","TLE_LINE2":"2 45784  53.0549  87.7964 0001957  73.7778 286.3426 15.06400933 66585","GP_ID":"183270804","OBJECT_ID":"2020-038BG","DECAY_DATE":null,"COUNTRY_CODE":"US","EPHEMERIS_TYPE":"0","REV_AT_EPOCH":"6658","MEAN_ANOMALY":"286.3426"}];
